ONEWEB-0248             
1 48798U 21045AH  26183.47603769 -.00000063  00000+0 -20009-3 0  9994
2 48798  87.9002 256.1455 0002180 112.8875 247.2485 13.15548559246421
ONEWEB-0225             
1 48799U 21045AJ  26183.65033487  .00000210  00000+0  52295-3 0  9993
2 48799  87.9000 256.1183 0001825 116.4747 243.6571 13.15547705246452
ONEWEB-0215             
1 48800U 21045AK  26183.62022824 -.00000092  00000+0 -27737-3 0  9999
2 48800  87.9007 256.1078 0002046 119.0676 241.0660 13.15548422246325
ONEWEB-0216             
1 48801U 21045AL  26183.47761998 -.00000024  00000+0 -98454-4 0  9995
2 48801  87.9003 256.1503 0002012  98.1141 262.0217 13.15547720246312
ONEWEB-0239             
1 48802U 21045AM  26183.48237271 -.00000023  00000+0 -95960-4 0  9997
2 48802  87.8991 256.1544 0002313 120.6462 239.4896 13.15547566246357
ONEWEB-0249             
1 48967U 21060A   26183.55625620  .00000037  00000+0  62355-4 0  9998
2 48967  87.9085 225.7261 0002124  97.7566 262.3806 13.16596071241639
ONEWEB-0250             
1 48968U 21060B   26183.55201919  .00000055  00000+0  94199-4 0  9991
2 48968  87.9085 223.4329 0003093  98.9844 261.1642 13.25834979242254
ONEWEB-0252             
1 48970U 21060D   26183.81514201 -.00000020  00000+0 -86496-4 0  9999
2 48970  87.9087 225.6666 0001809  93.8910 266.2428 13.16594403241711
ONEWEB-0253             
1 48971U 21060E   26183.57606959  .00000044  00000+0  80272-4 0  9995
2 48971  87.9086 225.7195 0002161  97.7137 262.4239 13.16594630241614
ONEWEB-0254             
1 48972U 21060F   26183.81355414  .00000095  00000+0  21546-3 0  9994
2 48972  87.9088 225.6701 0002150 103.9914 256.1456 13.16593690241649
ONEWEB-0255             
1 48973U 21060G   26183.54756372 -.00000049  00000+0 -16242-3 0  9991
2 48973  87.9086 225.7295 0002068 100.8937 259.2427 13.16593604241687
ONEWEB-0256             
1 48974U 21060H   26183.34570189  .00000025  00000+0  33040-4 0  9998
2 48974  87.9082 225.7729 0002012  92.6667 267.4694 13.16594214241622
ONEWEB-0257             
1 48975U 21060J   26183.83413309 -.00000038  00000+0 -13284-3 0  9996
2 48975  87.9086 225.6634 0001968  98.2248 261.9107 13.16592908241645
ONEWEB-0258             
1 48976U 21060K   26183.83571968 -.00000040  00000+0 -13844-3 0  9998
2 48976  87.9093 225.6756 0002164  96.7932 263.3445 13.16593214241654
ONEWEB-0259             
1 48977U 21060L   26183.82938466 -.00000002  00000+0 -37583-4 0  9993
2 48977  87.9080 225.6751 0002177  99.0966 261.0411 13.16593412241684
ONEWEB-0260             
1 48978U 21060M   26183.82067351 -.00000012  00000+0 -65539-4 0  9993
2 48978  87.9080 225.6782 0001740  88.1061 272.0269 13.16595080241663
ONEWEB-0261             
1 48979U 21060N   26183.56260648  .00000103  00000+0  23710-3 0  9992
2 48979  87.9083 225.7301 0001846 103.5002 256.6334 13.16593447241687
ONEWEB-0262             
1 48980U 21060P   26183.84680057 -.00000081  00000+0 -24441-3 0  9994
2 48980  87.9085 225.6601 0002297 100.9652 259.1738 13.16592745241682
ONEWEB-0263             
1 48981U 21060Q   26183.57447564 -.00000031  00000+0 -11396-3 0  9999
2 48981  87.9087 225.7257 0002007 105.3223 254.8130 13.16593662241615
ONEWEB-0264             
1 48982U 21060R   26183.83966785 -.00000114  00000+0 -33152-3 0  9996
2 48982  87.9085 225.6760 0001919  96.8512 263.2837 13.16594878241650
ONEWEB-0266             
1 48984U 21060T   26183.55706611  .00000082  00000+0  17978-3 0  9997
2 48984  87.9086 225.7229 0002178  95.0180 265.1199 13.16594706241601
ONEWEB-0267             
1 48985U 21060U   26183.18816149  .00000001  00000+0 -29945-4 0  9995
2 48985  87.9087 225.7926 0001883 100.5982 259.5361 13.16593694241569
ONEWEB-0268             
1 48986U 21060V   26183.15649103 -.00000050  00000+0 -16348-3 0  9994
2 48986  87.9088 225.8086 0001980  92.8245 267.3112 13.16593317241824
ONEWEB-0269             
1 48987U 21060W   26183.82146728  .00000008  00000+0 -12190-4 0  9998
2 48987  87.9078 225.6774 0002020  89.3922 270.7441 13.16593593241688
ONEWEB-0270             
1 48988U 21060X   26183.83888619 -.00000045  00000+0 -15215-3 0  9994
2 48988  87.9088 225.6752 0002171 105.8540 254.2830 13.16593117241729
ONEWEB-0271             
1 48989U 21060Y   26183.82622082  .00000016  00000+0  81250-5 0  9994
2 48989  87.9082 225.6668 0001997 101.9346 258.2009 13.16593287241726
ONEWEB-0272             
1 48990U 21060Z   26183.54440742  .00000037  00000+0  62905-4 0  9994
2 48990  87.9079 225.7346 0001760  94.7448 265.3884 13.16594438241637
ONEWEB-0273             
1 48991U 21060AA  26183.56656080 -.00000036  00000+0 -12656-3 0  9999
2 48991  87.9088 225.7300 0002064 100.1650 259.9713 13.16593795241616
ONEWEB-0274             
1 48992U 21060AB  26183.81988417  .00000074  00000+0  16020-3 0  9999
2 48992  87.9076 225.6804 0001754  91.2533 268.8799 13.16594739241686
ONEWEB-0275             
1 48993U 21060AC  26183.58081611 -.00000014  00000+0 -69742-4 0  9990
2 48993  87.9091 225.7184 0001951  96.5058 263.6295 13.16594625241582
