OBJECT_NAME,OBJECT_ID,EPOCH,MEAN_MOTION,ECCENTRICITY,INCLINATION,RA_OF_ASC_NODE,ARG_OF_PERICENTER,MEAN_ANOMALY,EPHEMERIS_TYPE,CLASSIFICATION_TYPE,NORAD_CAT_ID,ELEMENT_SET_NO,REV_AT_EPOCH,BSTAR,MEAN_MOTION_DOT,MEAN_MOTION_DDOT
ONEWEB-0248,2021-045AH,2026-07-02T11:25:29.656416,13.15548559,.000218,87.9002,256.1455,112.8875,247.2485,0,U,48798,999,24642,-.20009E-3,-.63E-6,0
ONEWEB-0225,2021-045AJ,2026-07-02T15:36:28.932768,13.15547705,.0001825,87.9000,256.1183,116.4747,243.6571,0,U,48799,999,24645,.52295E-3,.21E-5,0
ONEWEB-0215,2021-045AK,2026-07-02T14:53:07.719936,13.15548422,.0002046,87.9007,256.1078,119.0676,241.0660,0,U,48800,999,24632,-.27737E-3,-.92E-6,0
ONEWEB-0216,2021-045AL,2026-07-02T11:27:46.366272,13.15547720,.0002012,87.9003,256.1503,98.1141,262.0217,0,U,48801,999,24631,-.98454E-4,-.24E-6,0
ONEWEB-0239,2021-045AM,2026-07-02T11:34:37.002144,13.15547566,.0002313,87.8991,256.1544,120.6462,239.4896,0,U,48802,999,24635,-.9596E-4,-.23E-6,0
ONEWEB-0249,2021-060A,2026-07-02T13:21:00.535680,13.16596071,.0002124,87.9085,225.7261,97.7566,262.3806,0,U,48967,999,24163,.62355E-4,.37E-6,0
ONEWEB-0250,2021-060B,2026-07-02T13:14:54.458016,13.25834979,.0003093,87.9085,223.4329,98.9844,261.1642,0,U,48968,999,24225,.94199E-4,.55E-6,0
ONEWEB-0252,2021-060D,2026-07-02T19:33:48.269664,13.16594403,.0001809,87.9087,225.6666,93.8910,266.2428,0,U,48970,999,24171,-.86496E-4,-.2E-6,0
ONEWEB-0253,2021-060E,2026-07-02T13:49:32.412576,13.16594630,.0002161,87.9086,225.7195,97.7137,262.4239,0,U,48971,999,24161,.80272E-4,.44E-6,0
ONEWEB-0254,2021-060F,2026-07-02T19:31:31.077696,13.16593690,.000215,87.9088,225.6701,103.9914,256.1456,0,U,48972,999,24164,.21546E-3,.95E-6,0
ONEWEB-0255,2021-060G,2026-07-02T13:08:29.505408,13.16593604,.0002068,87.9086,225.7295,100.8937,259.2427,0,U,48973,999,24168,-.16242E-3,-.49E-6,0
ONEWEB-0256,2021-060H,2026-07-02T08:17:48.643296,13.16594214,.0002012,87.9082,225.7729,92.6667,267.4694,0,U,48974,999,24162,.3304E-4,.25E-6,0
ONEWEB-0257,2021-060J,2026-07-02T20:01:09.098976,13.16592908,.0001968,87.9086,225.6634,98.2248,261.9107,0,U,48975,999,24164,-.13284E-3,-.38E-6,0
ONEWEB-0258,2021-060K,2026-07-02T20:03:26.180352,13.16593214,.0002164,87.9093,225.6756,96.7932,263.3445,0,U,48976,999,24165,-.13844E-3,-.4E-6,0
ONEWEB-0259,2021-060L,2026-07-02T19:54:18.834624,13.16593412,.0002177,87.9080,225.6751,99.0966,261.0411,0,U,48977,999,24168,-.37583E-4,-.2E-7,0
ONEWEB-0260,2021-060M,2026-07-02T19:41:46.191264,13.16595080,.000174,87.9080,225.6782,88.1061,272.0269,0,U,48978,999,24166,-.65539E-4,-.12E-6,0
ONEWEB-0261,2021-060N,2026-07-02T13:30:09.199872,13.16593447,.0001846,87.9083,225.7301,103.5002,256.6334,0,U,48979,999,24168,.2371E-3,.103E-5,0
ONEWEB-0262,2021-060P,2026-07-02T20:19:23.569248,13.16592745,.0002297,87.9085,225.6601,100.9652,259.1738,0,U,48980,999,24168,-.24441E-3,-.81E-6,0
ONEWEB-0263,2021-060Q,2026-07-02T13:47:14.695296,13.16593662,.0002007,87.9087,225.7257,105.3223,254.8130,0,U,48981,999,24161,-.11396E-3,-.31E-6,0
ONEWEB-0264,2021-060R,2026-07-02T20:09:07.302240,13.16594878,.0001919,87.9085,225.6760,96.8512,263.2837,0,U,48982,999,24165,-.33152E-3,-.114E-5,0
ONEWEB-0266,2021-060T,2026-07-02T13:22:10.511904,13.16594706,.0002178,87.9086,225.7229,95.0180,265.1199,0,U,48984,999,24160,.17978E-3,.82E-6,0
ONEWEB-0267,2021-060U,2026-07-02T04:30:57.152736,13.16593694,.00018831,87.9087,225.7926,100.5982,259.5361,0,U,48985,999,24156,-.29945329E-4,.1E-7,0
ONEWEB-0268,2021-060V,2026-07-02T03:45:20.824992,13.16593317,.000198,87.9088,225.8086,92.8245,267.3112,0,U,48986,999,24182,-.16347591E-3,-.5E-6,0
ONEWEB-0269,2021-060W,2026-07-02T19:42:54.772992,13.16593593,.000202,87.9078,225.6774,89.3922,270.7441,0,U,48987,999,24168,-.1219E-4,.8E-7,0
ONEWEB-0270,2021-060X,2026-07-02T20:07:59.766816,13.16593117,.0002171,87.9088,225.6752,105.8540,254.2830,0,U,48988,999,24172,-.15215E-3,-.45E-6,0
ONEWEB-0271,2021-060Y,2026-07-02T19:49:45.478848,13.16593287,.0001997,87.9082,225.6668,101.9346,258.2009,0,U,48989,999,24172,.8125E-5,.16E-6,0
ONEWEB-0272,2021-060Z,2026-07-02T13:03:56.801088,13.16594438,.000176,87.9079,225.7346,94.7448,265.3884,0,U,48990,999,24163,.62905E-4,.37E-6,0
ONEWEB-0273,2021-060AA,2026-07-02T13:35:50.853120,13.16593795,.0002064,87.9088,225.7300,100.1650,259.9713,0,U,48991,999,24161,-.12656E-3,-.36E-6,0
ONEWEB-0274,2021-060AB,2026-07-02T19:40:37.992288,13.16594739,.0001754,87.9076,225.6804,91.2533,268.8799,0,U,48992,999,24168,.1602E-3,.74E-6,0
ONEWEB-0275,2021-060AC,2026-07-02T13:56:22.511904,13.16594625,.0001951,87.9091,225.7184,96.5058,263.6295,0,U,48993,999,24158,-.69742E-4,-.14E-6,0
